<?xml version="1.0" encoding="UTF-8"?><kml xmlns="http://www.opengis.net/kml/2.2"><Document><Folder><name>Plots</name><Placemark><name>plot-B</name><Polygon><outerBoundaryIs><LinearRing><coordinates>79,12,0 79.5,12,0 79.5,12.5,0 79,12.5,0 79,12,0</coordinates></LinearRing></outerBoundaryIs></Polygon></Placemark><Placemark><name>plot-with-hole</name><Polygon><outerBoundaryIs><LinearRing><coordinates>77,12,0 78,12,0 78,13,0 77,13,0 77,12,0</coordinates></LinearRing></outerBoundaryIs><innerBoundaryIs><LinearRing><coordinates>77.25,12.25,0 77.75,12.25,0 77.75,12.75,0 77.25,12.75,0 77.25,12.25,0</coordinates></LinearRing></innerBoundaryIs></Polygon></Placemark></Folder><Folder><name>Roads</name><Placemark><name>road-2</name><LineString><coordinates>77,12,0 78,13,0</coordinates></LineString></Placemark></Folder><Folder><name>Wells</name><Placemark><name>well-2</name><Point><coordinates>77.5,12.5,0</coordinates></Point></Placemark><Placemark><name>well-3</name><Point><coordinates>77.9,12.9,0</coordinates></Point></Placemark></Folder></Document></kml>