<?xml version="1.0" encoding="UTF-8"?><kml xmlns="http://www.opengis.net/kml/2.2"><Document><Placemark><name>plot-A</name><Polygon><outerBoundaryIs><LinearRing><coordinates>77,12,0 78,12,0 78,13,0 77,13,0 77,12,0</coordinates></LinearRing></outerBoundaryIs></Polygon></Placemark><Placemark><name>road-1</name><LineString><coordinates>77,12,0 77,13,0</coordinates></LineString></Placemark><Placemark><name>well-1</name><Point><coordinates>77.5,12.5,0</coordinates></Point></Placemark></Document></kml>